      2.10          N: GNSS NAV DATA                        RINEX VERSION / TYPE
fic2rin                                 06/18/2024 00:59:02 PGM / RUN BY / DATE
                                                            END OF HEADER
6  24  6 17  1 59 44.0  .214342027903D-03 -.212594386539D-10  .000000000000D+00
     .210000000000D+02 -.633125000000D+02  .366586698379D-08  .121389294870D+01
    -.321120023727D-05  .294436956756D-02  .652670860291D-05  .515364155197D+04
     .935840000000D+05  .763684511185D-07  .166148099615D+01 -.372529029846D-08
     .989504978043D+00  .268750000000D+03 -.692312786955D+00 -.775710882900D-08
    -.375015620906D-10  .100000000000D+01  .231900000000D+04  .000000000000D+00
     .240000000000D+01  .000000000000D+00  .372529029846D-08  .210000000000D+02
     .864000000000D+05  .400000000000D+01
3  24  6 17  1 59 44.0  .416974537075D-03  .178488335223D-10  .000000000000D+00
     .320000000000D+02 -.274687500000D+02  .400230956940D-08 -.135253984226D+00
    -.147894024849D-05  .559163361322D-02  .952370464802D-05  .515370929527D+04
     .935840000000D+05 -.391155481339D-07  .269787627882D+01  .409781932831D-07
     .985000132478D+00  .214781250000D+03  .110159680707D+01 -.774925135885D-08
     .372515516767D-09  .100000000000D+01  .231900000000D+04  .000000000000D+00
     .240000000000D+01  .000000000000D+00  .139698386192D-08  .320000000000D+02
     .864000000000D+05  .400000000000D+01
21 24  6 17 16  0  0.0  .114846508950D-03 -.250111042988D-11  .000000000000D+00
     .116000000000D+03 -.883125000000D+02  .460662045566D-08 -.217981583067D+01
    -.427290797234D-05  .251652705483D-01  .574812293053D-05  .515368276978D+04
     .144000000000D+06 -.566244125366D-06  .155495379151D+01  .219792127609D-06
     .961353530496D+00  .271968750000D+03 -.559496457273D+00 -.810712340852D-08
    -.244295890190D-09  .100000000000D+01  .231900000000D+04  .000000000000D+00
     .240000000000D+01  .000000000000D+00 -.102445483208D-07  .116000000000D+03
     .136800000000D+06  .400000000000D+01
20 24  6 17 16  0  0.0  .373739749193D-03 -.454747350886D-12  .000000000000D+00
     .600000000000D+02 -.529687500000D+02  .440625496678D-08  .267684004349D+01
    -.290945172310D-05  .358405837324D-02  .919960439205D-05  .515381432152D+04
     .144000000000D+06 -.372529029846D-07  .251673352856D+01 -.651925802231D-07
     .954309809623D+00  .197906250000D+03 -.258995255794D+01 -.789318592573D-08
     .364300888880D-10  .100000000000D+01  .231900000000D+04  .000000000000D+00
     .340000000000D+01  .000000000000D+00 -.838190317154D-08  .600000000000D+02
     .136800000000D+06  .400000000000D+01
25 24  6 17 16  0  0.0  .497468281537D-03  .568434188608D-12  .000000000000D+00
     .550000000000D+02  .771562500000D+02  .463912180947D-08  .631917905186D+00
     .381842255592D-05  .116166048683D-01  .905431807041D-05  .515378103828D+04
     .144000000000D+06 -.154599547386D-06 -.465904707830D+00  .577419996262D-07
     .950461736741D+00  .200500000000D+03  .108907935730D+01 -.822641409174D-08
    -.521450291926D-10  .100000000000D+01  .231900000000D+04  .000000000000D+00
     .240000000000D+01  .000000000000D+00  .512227416039D-08  .550000000000D+02
     .136800000000D+06  .400000000000D+01
13 24  6 17 16  0  0.0  .658571720123D-03  .261479726760D-11  .000000000000D+00
     .110000000000D+03 -.940625000000D+01  .436339603867D-08 -.229785624742D+01
    -.450760126114D-06  .816722435411D-02  .594370067120D-05  .515365071106D+04
     .144000000000D+06  .316649675369D-07 -.240122997415D+01 -.745058059692D-07
     .971510956931D+00  .270843750000D+03  .927260351933D+00 -.780139638805D-08
     .142863093678D-09  .100000000000D+01  .231900000000D+04  .000000000000D+00
     .240000000000D+01  .000000000000D+00 -.111758708954D-07  .110000000000D+03
     .136800000000D+06  .400000000000D+01
11 24  6 17 16  0  0.0 -.687408726662D-03 -.795807864051D-11  .000000000000D+00
     .130000000000D+02 -.798750000000D+02  .446232873105D-08 -.271100970780D+01
    -.406615436077D-05  .135622790549D-02  .562146306038D-05  .515372623634D+04
     .144000000000D+06 -.167638063431D-07  .169369529782D+01 -.949949026108D-07
     .966045862179D+00  .271781250000D+03 -.260171116138D+01 -.811783814054D-08
    -.243581574722D-09  .100000000000D+01  .231900000000D+04  .000000000000D+00
     .240000000000D+01  .000000000000D+00 -.884756445885D-08  .525000000000D+03
     .136800000000D+06  .400000000000D+01
23 24  6 17 16  0  0.0  .252573750913D-03  .909494701773D-11  .000000000000D+00
     .234000000000D+03 -.358125000000D+02  .397552273934D-08  .108915599080D+01
    -.173971056938D-05  .424910534639D-02  .966526567936D-05  .515372259331D+04
     .144000000000D+06  .186264514923D-08  .266585491409D+01  .838190317154D-07
     .979800434472D+00  .202093750000D+03 -.296823123628D+01 -.774032241550D-08
     .118219210019D-09  .100000000000D+01  .231900000000D+04  .000000000000D+00
     .240000000000D+01  .000000000000D+00 -.838190317154D-08  .234000000000D+03
     .136800000000D+06  .400000000000D+01
18 24  6 17 16  0  0.0 -.626103021204D-03 -.477484718431D-11  .000000000000D+00
     .209000000000D+03 -.738125000000D+02  .436161025000D-08  .230617876643D+01
    -.377185642719D-05  .422066031024D-02  .588223338127D-05  .515360932732D+04
     .144000000000D+06 -.113621354103D-06  .166486087234D+01  .124797224998D-06
     .974331738016D+00  .275968750000D+03 -.305497235394D+01 -.805212111745D-08
    -.196079596074D-09  .100000000000D+01  .231900000000D+04  .000000000000D+00
     .240000000000D+01  .000000000000D+00 -.838190317154D-08  .977000000000D+03
     .136800000000D+06  .400000000000D+01
14 24  6 17 16  0  0.0  .427667982876D-03  .909494701773D-11  .000000000000D+00
     .151000000000D+03  .777812500000D+02  .471269630272D-08  .635650789361D+00
     .408291816711D-05  .459251110442D-02  .917725265026D-05  .515370381927D+04
     .144000000000D+06  .279396772385D-07 -.423884839316D+00  .838190317154D-07
     .945860034296D+00  .195625000000D+03 -.289074254442D+01 -.809355141462D-08
     .607168148133D-10  .100000000000D+01  .231900000000D+04  .000000000000D+00
     .240000000000D+01  .000000000000D+00 -.791624188423D-08  .663000000000D+03
     .136800000000D+06  .400000000000D+01
2  24  6 17 15 59 44.0 -.415965914726D-03  .704858393874D-11  .000000000000D+00
     .580000000000D+02 -.802812500000D+02  .453161733148D-08 -.180931234249D+01
    -.380538403988D-05  .159753916087D-01  .531040132046D-05  .515369861221D+04
     .143984000000D+06 -.158324837685D-06  .156227247954D+01  .389292836189D-06
     .967091114221D+00  .281031250000D+03 -.117404418960D+01 -.812533845296D-08
    -.254296306748D-09  .100000000000D+01  .231900000000D+04  .000000000000D+00
     .240000000000D+01  .000000000000D+00 -.176951289177D-07  .580000000000D+02
     .139350000000D+06  .400000000000D+01
20 24  6 17 15 59 44.0  .373741146177D-03 -.454747350886D-12  .000000000000D+00
     .500000000000D+01 -.529687500000D+02  .440625496678D-08  .267450559196D+01
    -.290945172310D-05  .358406058513D-02  .919960439205D-05  .515381432724D+04
     .143984000000D+06 -.372529029846D-07  .251673363242D+01 -.651925802231D-07
     .954309793531D+00  .197906250000D+03 -.258995171384D+01 -.789318592573D-08
     .360729311538D-10  .100000000000D+01  .231900000000D+04  .000000000000D+00
     .240000000000D+01  .000000000000D+00 -.838190317154D-08  .500000000000D+01
     .142950000000D+06  .400000000000D+01
28 24  6 17 17 44 32.0 -.293080694973D-03 -.167119651451D-10  .000000000000D+00
     .220000000000D+02 -.108125000000D+02  .452733143867D-08  .101587191423D+01
    -.603497028351D-06  .302428379655D-03  .813044607639D-05  .515366301727D+04
     .150272000000D+06  .689178705215D-07 -.152776071769D+01 -.186264514923D-08
     .960950148391D+00  .224687500000D+03  .160946819756D+01 -.796068873750D-08
    -.373586989969D-09  .100000000000D+01  .231900000000D+04  .000000000000D+00
     .240000000000D+01  .000000000000D+00 -.931322574615D-08  .220000000000D+02
     .143100000000D+06  .400000000000D+01
2  24  6 17 17 59 44.0 -.415915157646D-03  .704858393874D-11  .000000000000D+00
     .630000000000D+02 -.776562500000D+02  .460197740512D-08 -.759140080020D+00
    -.418536365032D-05  .159757317742D-01  .567734241486D-05  .515369894981D+04
     .151184000000D+06 -.180676579475D-06  .156221098870D+01 -.596046447754D-07
     .967088577521D+00  .276937500000D+03 -.117404922350D+01 -.849356807692D-08
    -.728601777760D-10  .100000000000D+01  .231900000000D+04  .000000000000D+00
     .240000000000D+01  .000000000000D+00 -.176951289177D-07  .630000000000D+02
     .144000000000D+06  .400000000000D+01
